{
"type": "FeatureCollection",
"name": "stop_signs",
"crs": { "type": "name", "properties": { "name": "urn:ogc:def:crs:OGC:1.3:CRS84" } },
"features": [
{ "type": "Feature", "properties": { "element": "node", "id": 103946486, "highway": "stop", "traffic_signals": null, "traffic_signals:direction": null, "button_operated": null, "check_date:tactile_paving": null, "crossing": null, "source": null, "tactile_paving": null, "traffic_signals:sound": null, "traffic_signals:vibration": null, "direction": "backward", "traffic_calming": null, "description": null, "man_made": null, "ele": null, "ele:DHHN92": null, "barrier": null, "note": null, "bicycle": null, "stop": null, "red_turn:right:bicycle": null, "red_turn:right": null, "old_name": null, "u": 9316342462, "v": 103946486, "key": 0 }, "geometry": { "type": "Point", "coordinates": [ 7.1038544, 50.7292522 ] } },
{ "type": "Feature", "properties": { "element": "node", "id": 103946486, "highway": "stop", "traffic_signals": null, "traffic_signals:direction": null, "button_operated": null, "check_date:tactile_paving": null, "crossing": null, "source": null, "tactile_paving": null, "traffic_signals:sound": null, "traffic_signals:vibration": null, "direction": "backward", "traffic_calming": null, "description": null, "man_made": null, "ele": null, "ele:DHHN92": null, "barrier": null, "note": null, "bicycle": null, "stop": null, "red_turn:right:bicycle": null, "red_turn:right": null, "old_name": null, "u": 253107136, "v": 103946486, "key": 0 }, "geometry": { "type": "Point", "coordinates": [ 7.1038544, 50.7292522 ] } },
{ "type": "Feature", "properties": { "element": "node", "id": 103946486, "highway": "stop", "traffic_signals": null, "traffic_signals:direction": null, "button_operated": null, "check_date:tactile_paving": null, "crossing": null, "source": null, "tactile_paving": null, "traffic_signals:sound": null, "traffic_signals:vibration": null, "direction": "backward", "traffic_calming": null, "description": null, "man_made": null, "ele": null, "ele:DHHN92": null, "barrier": null, "note": null, "bicycle": null, "stop": null, "red_turn:right:bicycle": null, "red_turn:right": null, "old_name": null, "u": 103946486, "v": 31369825, "key": 0 }, "geometry": { "type": "Point", "coordinates": [ 7.1038544, 50.7292522 ] } },
{ "type": "Feature", "properties": { "element": "node", "id": 417636884, "highway": "stop", "traffic_signals": null, "traffic_signals:direction": null, "button_operated": null, "check_date:tactile_paving": null, "crossing": null, "source": null, "tactile_paving": null, "traffic_signals:sound": null, "traffic_signals:vibration": null, "direction": null, "traffic_calming": null, "description": null, "man_made": null, "ele": null, "ele:DHHN92": null, "barrier": null, "note": null, "bicycle": null, "stop": null, "red_turn:right:bicycle": null, "red_turn:right": null, "old_name": null, "u": 83023063, "v": 256980155, "key": 0 }, "geometry": { "type": "Point", "coordinates": [ 7.0928653, 50.723036 ] } },
{ "type": "Feature", "properties": { "element": "node", "id": 417636886, "highway": "stop", "traffic_signals": null, "traffic_signals:direction": null, "button_operated": null, "check_date:tactile_paving": null, "crossing": null, "source": null, "tactile_paving": null, "traffic_signals:sound": null, "traffic_signals:vibration": null, "direction": null, "traffic_calming": null, "description": null, "man_made": null, "ele": null, "ele:DHHN92": null, "barrier": null, "note": null, "bicycle": null, "stop": null, "red_turn:right:bicycle": null, "red_turn:right": null, "old_name": null, "u": 1756664270, "v": 1436293680, "key": 0 }, "geometry": { "type": "Point", "coordinates": [ 7.1083715, 50.7204816 ] } },
{ "type": "Feature", "properties": { "element": "node", "id": 827601541, "highway": "stop", "traffic_signals": null, "traffic_signals:direction": null, "button_operated": null, "check_date:tactile_paving": null, "crossing": null, "source": null, "tactile_paving": null, "traffic_signals:sound": null, "traffic_signals:vibration": null, "direction": "backward", "traffic_calming": null, "description": null, "man_made": null, "ele": null, "ele:DHHN92": null, "barrier": null, "note": null, "bicycle": null, "stop": null, "red_turn:right:bicycle": null, "red_turn:right": null, "old_name": null, "u": 253068455, "v": 253957992, "key": 0 }, "geometry": { "type": "Point", "coordinates": [ 7.1394755, 50.7373996 ] } },
{ "type": "Feature", "properties": { "element": "node", "id": 827601541, "highway": "stop", "traffic_signals": null, "traffic_signals:direction": null, "button_operated": null, "check_date:tactile_paving": null, "crossing": null, "source": null, "tactile_paving": null, "traffic_signals:sound": null, "traffic_signals:vibration": null, "direction": "backward", "traffic_calming": null, "description": null, "man_made": null, "ele": null, "ele:DHHN92": null, "barrier": null, "note": null, "bicycle": null, "stop": null, "red_turn:right:bicycle": null, "red_turn:right": null, "old_name": null, "u": 253957992, "v": 253068455, "key": 0 }, "geometry": { "type": "Point", "coordinates": [ 7.1394755, 50.7373996 ] } },
{ "type": "Feature", "properties": { "element": "node", "id": 871754054, "highway": "stop", "traffic_signals": null, "traffic_signals:direction": null, "button_operated": null, "check_date:tactile_paving": null, "crossing": null, "source": null, "tactile_paving": null, "traffic_signals:sound": null, "traffic_signals:vibration": null, "direction": "backward", "traffic_calming": null, "description": null, "man_made": null, "ele": null, "ele:DHHN92": null, "barrier": null, "note": null, "bicycle": null, "stop": null, "red_turn:right:bicycle": null, "red_turn:right": null, "old_name": null, "u": 355223311, "v": 10020729339, "key": 0 }, "geometry": { "type": "Point", "coordinates": [ 7.1080923, 50.7247414 ] } },
{ "type": "Feature", "properties": { "element": "node", "id": 871754054, "highway": "stop", "traffic_signals": null, "traffic_signals:direction": null, "button_operated": null, "check_date:tactile_paving": null, "crossing": null, "source": null, "tactile_paving": null, "traffic_signals:sound": null, "traffic_signals:vibration": null, "direction": "backward", "traffic_calming": null, "description": null, "man_made": null, "ele": null, "ele:DHHN92": null, "barrier": null, "note": null, "bicycle": null, "stop": null, "red_turn:right:bicycle": null, "red_turn:right": null, "old_name": null, "u": 10020729339, "v": 355223311, "key": 0 }, "geometry": { "type": "Point", "coordinates": [ 7.1080923, 50.7247414 ] } },
{ "type": "Feature", "properties": { "element": "node", "id": 871754055, "highway": "stop", "traffic_signals": null, "traffic_signals:direction": null, "button_operated": null, "check_date:tactile_paving": null, "crossing": null, "source": null, "tactile_paving": null, "traffic_signals:sound": null, "traffic_signals:vibration": null, "direction": "forward", "traffic_calming": null, "description": null, "man_made": null, "ele": null, "ele:DHHN92": null, "barrier": null, "note": null, "bicycle": null, "stop": null, "red_turn:right:bicycle": null, "red_turn:right": null, "old_name": null, "u": 31369793, "v": 355223311, "key": 0 }, "geometry": { "type": "Point", "coordinates": [ 7.1081745, 50.7246586 ] } },
{ "type": "Feature", "properties": { "element": "node", "id": 981545879, "highway": "stop", "traffic_signals": null, "traffic_signals:direction": null, "button_operated": null, "check_date:tactile_paving": null, "crossing": null, "source": null, "tactile_paving": null, "traffic_signals:sound": null, "traffic_signals:vibration": null, "direction": "forward", "traffic_calming": null, "description": null, "man_made": null, "ele": null, "ele:DHHN92": null, "barrier": null, "note": null, "bicycle": null, "stop": null, "red_turn:right:bicycle": null, "red_turn:right": null, "old_name": null, "u": 32310176, "v": 259259736, "key": 0 }, "geometry": { "type": "Point", "coordinates": [ 7.1357215, 50.7311377 ] } },
{ "type": "Feature", "properties": { "element": "node", "id": 981545879, "highway": "stop", "traffic_signals": null, "traffic_signals:direction": null, "button_operated": null, "check_date:tactile_paving": null, "crossing": null, "source": null, "tactile_paving": null, "traffic_signals:sound": null, "traffic_signals:vibration": null, "direction": "forward", "traffic_calming": null, "description": null, "man_made": null, "ele": null, "ele:DHHN92": null, "barrier": null, "note": null, "bicycle": null, "stop": null, "red_turn:right:bicycle": null, "red_turn:right": null, "old_name": null, "u": 259259736, "v": 32310176, "key": 0 }, "geometry": { "type": "Point", "coordinates": [ 7.1357215, 50.7311377 ] } },
{ "type": "Feature", "properties": { "element": "node", "id": 1478006889, "highway": "stop", "traffic_signals": null, "traffic_signals:direction": null, "button_operated": null, "check_date:tactile_paving": null, "crossing": null, "source": null, "tactile_paving": null, "traffic_signals:sound": null, "traffic_signals:vibration": null, "direction": "forward", "traffic_calming": null, "description": null, "man_made": null, "ele": null, "ele:DHHN92": null, "barrier": null, "note": null, "bicycle": null, "stop": null, "red_turn:right:bicycle": null, "red_turn:right": null, "old_name": null, "u": 7174524379, "v": 253068455, "key": 0 }, "geometry": { "type": "Point", "coordinates": [ 7.1395898, 50.7372867 ] } },
{ "type": "Feature", "properties": { "element": "node", "id": 1478006889, "highway": "stop", "traffic_signals": null, "traffic_signals:direction": null, "button_operated": null, "check_date:tactile_paving": null, "crossing": null, "source": null, "tactile_paving": null, "traffic_signals:sound": null, "traffic_signals:vibration": null, "direction": "forward", "traffic_calming": null, "description": null, "man_made": null, "ele": null, "ele:DHHN92": null, "barrier": null, "note": null, "bicycle": null, "stop": null, "red_turn:right:bicycle": null, "red_turn:right": null, "old_name": null, "u": 253068455, "v": 7174524379, "key": 0 }, "geometry": { "type": "Point", "coordinates": [ 7.1395898, 50.7372867 ] } },
{ "type": "Feature", "properties": { "element": "node", "id": 3666363408, "highway": "stop", "traffic_signals": null, "traffic_signals:direction": null, "button_operated": null, "check_date:tactile_paving": null, "crossing": null, "source": null, "tactile_paving": null, "traffic_signals:sound": null, "traffic_signals:vibration": null, "direction": "backward", "traffic_calming": null, "description": null, "man_made": null, "ele": null, "ele:DHHN92": null, "barrier": null, "note": null, "bicycle": null, "stop": null, "red_turn:right:bicycle": null, "red_turn:right": null, "old_name": null, "u": 31942004, "v": 31933789, "key": 0 }, "geometry": { "type": "Point", "coordinates": [ 7.1185629, 50.7340105 ] } },
{ "type": "Feature", "properties": { "element": "node", "id": 3666363408, "highway": "stop", "traffic_signals": null, "traffic_signals:direction": null, "button_operated": null, "check_date:tactile_paving": null, "crossing": null, "source": null, "tactile_paving": null, "traffic_signals:sound": null, "traffic_signals:vibration": null, "direction": "backward", "traffic_calming": null, "description": null, "man_made": null, "ele": null, "ele:DHHN92": null, "barrier": null, "note": null, "bicycle": null, "stop": null, "red_turn:right:bicycle": null, "red_turn:right": null, "old_name": null, "u": 31933789, "v": 31942004, "key": 0 }, "geometry": { "type": "Point", "coordinates": [ 7.1185629, 50.7340105 ] } },
{ "type": "Feature", "properties": { "element": "node", "id": 4438422193, "highway": "stop", "traffic_signals": null, "traffic_signals:direction": null, "button_operated": null, "check_date:tactile_paving": null, "crossing": null, "source": null, "tactile_paving": null, "traffic_signals:sound": null, "traffic_signals:vibration": null, "direction": null, "traffic_calming": null, "description": null, "man_made": null, "ele": null, "ele:DHHN92": null, "barrier": null, "note": null, "bicycle": null, "stop": null, "red_turn:right:bicycle": null, "red_turn:right": null, "old_name": null, "u": 4438422091, "v": 4438422689, "key": 0 }, "geometry": { "type": "Point", "coordinates": [ 7.0728763, 50.7372958 ] } },
{ "type": "Feature", "properties": { "element": "node", "id": 4816608624, "highway": "stop", "traffic_signals": null, "traffic_signals:direction": null, "button_operated": null, "check_date:tactile_paving": null, "crossing": null, "source": null, "tactile_paving": null, "traffic_signals:sound": null, "traffic_signals:vibration": null, "direction": "forward", "traffic_calming": null, "description": null, "man_made": null, "ele": null, "ele:DHHN92": null, "barrier": null, "note": null, "bicycle": null, "stop": null, "red_turn:right:bicycle": null, "red_turn:right": null, "old_name": null, "u": 1599874206, "v": 4779177133, "key": 0 }, "geometry": { "type": "Point", "coordinates": [ 7.1477392, 50.7051117 ] } },
{ "type": "Feature", "properties": { "element": "node", "id": 4816608624, "highway": "stop", "traffic_signals": null, "traffic_signals:direction": null, "button_operated": null, "check_date:tactile_paving": null, "crossing": null, "source": null, "tactile_paving": null, "traffic_signals:sound": null, "traffic_signals:vibration": null, "direction": "forward", "traffic_calming": null, "description": null, "man_made": null, "ele": null, "ele:DHHN92": null, "barrier": null, "note": null, "bicycle": null, "stop": null, "red_turn:right:bicycle": null, "red_turn:right": null, "old_name": null, "u": 4779177133, "v": 1599874206, "key": 0 }, "geometry": { "type": "Point", "coordinates": [ 7.1477392, 50.7051117 ] } },
{ "type": "Feature", "properties": { "element": "node", "id": 5846555010, "highway": "stop", "traffic_signals": null, "traffic_signals:direction": null, "button_operated": null, "check_date:tactile_paving": null, "crossing": null, "source": null, "tactile_paving": null, "traffic_signals:sound": null, "traffic_signals:vibration": null, "direction": "forward", "traffic_calming": null, "description": null, "man_made": null, "ele": null, "ele:DHHN92": null, "barrier": null, "note": null, "bicycle": null, "stop": null, "red_turn:right:bicycle": null, "red_turn:right": null, "old_name": null, "u": 36465352, "v": 253062583, "key": 0 }, "geometry": { "type": "Point", "coordinates": [ 7.1161588, 50.7427812 ] } },
{ "type": "Feature", "properties": { "element": "node", "id": 5846555010, "highway": "stop", "traffic_signals": null, "traffic_signals:direction": null, "button_operated": null, "check_date:tactile_paving": null, "crossing": null, "source": null, "tactile_paving": null, "traffic_signals:sound": null, "traffic_signals:vibration": null, "direction": "forward", "traffic_calming": null, "description": null, "man_made": null, "ele": null, "ele:DHHN92": null, "barrier": null, "note": null, "bicycle": null, "stop": null, "red_turn:right:bicycle": null, "red_turn:right": null, "old_name": null, "u": 253062583, "v": 36465352, "key": 0 }, "geometry": { "type": "Point", "coordinates": [ 7.1161588, 50.7427812 ] } },
{ "type": "Feature", "properties": { "element": "node", "id": 5846555011, "highway": "stop", "traffic_signals": null, "traffic_signals:direction": null, "button_operated": null, "check_date:tactile_paving": null, "crossing": null, "source": null, "tactile_paving": null, "traffic_signals:sound": null, "traffic_signals:vibration": null, "direction": "backward", "traffic_calming": null, "description": null, "man_made": null, "ele": null, "ele:DHHN92": null, "barrier": null, "note": null, "bicycle": null, "stop": null, "red_turn:right:bicycle": null, "red_turn:right": null, "old_name": null, "u": 36465352, "v": 253062583, "key": 0 }, "geometry": { "type": "Point", "coordinates": [ 7.1161419, 50.7428561 ] } },
{ "type": "Feature", "properties": { "element": "node", "id": 5846555011, "highway": "stop", "traffic_signals": null, "traffic_signals:direction": null, "button_operated": null, "check_date:tactile_paving": null, "crossing": null, "source": null, "tactile_paving": null, "traffic_signals:sound": null, "traffic_signals:vibration": null, "direction": "backward", "traffic_calming": null, "description": null, "man_made": null, "ele": null, "ele:DHHN92": null, "barrier": null, "note": null, "bicycle": null, "stop": null, "red_turn:right:bicycle": null, "red_turn:right": null, "old_name": null, "u": 253062583, "v": 36465352, "key": 0 }, "geometry": { "type": "Point", "coordinates": [ 7.1161419, 50.7428561 ] } },
{ "type": "Feature", "properties": { "element": "node", "id": 5961720623, "highway": "stop", "traffic_signals": null, "traffic_signals:direction": null, "button_operated": null, "check_date:tactile_paving": null, "crossing": null, "source": null, "tactile_paving": null, "traffic_signals:sound": null, "traffic_signals:vibration": null, "direction": "backward", "traffic_calming": null, "description": null, "man_made": null, "ele": null, "ele:DHHN92": null, "barrier": null, "note": null, "bicycle": null, "stop": null, "red_turn:right:bicycle": null, "red_turn:right": null, "old_name": null, "u": 80219605, "v": 31768087, "key": 0 }, "geometry": { "type": "Point", "coordinates": [ 7.1344277, 50.7002838 ] } },
{ "type": "Feature", "properties": { "element": "node", "id": 5961720623, "highway": "stop", "traffic_signals": null, "traffic_signals:direction": null, "button_operated": null, "check_date:tactile_paving": null, "crossing": null, "source": null, "tactile_paving": null, "traffic_signals:sound": null, "traffic_signals:vibration": null, "direction": "backward", "traffic_calming": null, "description": null, "man_made": null, "ele": null, "ele:DHHN92": null, "barrier": null, "note": null, "bicycle": null, "stop": null, "red_turn:right:bicycle": null, "red_turn:right": null, "old_name": null, "u": 31768087, "v": 80219605, "key": 0 }, "geometry": { "type": "Point", "coordinates": [ 7.1344277, 50.7002838 ] } },
{ "type": "Feature", "properties": { "element": "node", "id": 6036673313, "highway": "stop", "traffic_signals": null, "traffic_signals:direction": null, "button_operated": null, "check_date:tactile_paving": null, "crossing": null, "source": null, "tactile_paving": null, "traffic_signals:sound": null, "traffic_signals:vibration": null, "direction": "forward", "traffic_calming": null, "description": null, "man_made": null, "ele": null, "ele:DHHN92": null, "barrier": null, "note": null, "bicycle": null, "stop": null, "red_turn:right:bicycle": null, "red_turn:right": null, "old_name": null, "u": 26964538, "v": 253116166, "key": 0 }, "geometry": { "type": "Point", "coordinates": [ 7.1006321, 50.7318648 ] } },
{ "type": "Feature", "properties": { "element": "node", "id": 6164163514, "highway": "stop", "traffic_signals": null, "traffic_signals:direction": null, "button_operated": null, "check_date:tactile_paving": null, "crossing": null, "source": null, "tactile_paving": null, "traffic_signals:sound": null, "traffic_signals:vibration": null, "direction": "forward", "traffic_calming": null, "description": null, "man_made": null, "ele": null, "ele:DHHN92": null, "barrier": null, "note": null, "bicycle": null, "stop": null, "red_turn:right:bicycle": null, "red_turn:right": null, "old_name": null, "u": 1436280482, "v": 1577149879, "key": 0 }, "geometry": { "type": "Point", "coordinates": [ 7.0979152, 50.7211926 ] } },
{ "type": "Feature", "properties": { "element": "node", "id": 6164163514, "highway": "stop", "traffic_signals": null, "traffic_signals:direction": null, "button_operated": null, "check_date:tactile_paving": null, "crossing": null, "source": null, "tactile_paving": null, "traffic_signals:sound": null, "traffic_signals:vibration": null, "direction": "forward", "traffic_calming": null, "description": null, "man_made": null, "ele": null, "ele:DHHN92": null, "barrier": null, "note": null, "bicycle": null, "stop": null, "red_turn:right:bicycle": null, "red_turn:right": null, "old_name": null, "u": 1577149879, "v": 1436280482, "key": 0 }, "geometry": { "type": "Point", "coordinates": [ 7.0979152, 50.7211926 ] } },
{ "type": "Feature", "properties": { "element": "node", "id": 6166308006, "highway": "stop", "traffic_signals": null, "traffic_signals:direction": null, "button_operated": null, "check_date:tactile_paving": null, "crossing": null, "source": null, "tactile_paving": null, "traffic_signals:sound": null, "traffic_signals:vibration": null, "direction": "forward", "traffic_calming": null, "description": null, "man_made": null, "ele": null, "ele:DHHN92": null, "barrier": null, "note": null, "bicycle": null, "stop": null, "red_turn:right:bicycle": null, "red_turn:right": null, "old_name": null, "u": 1564177273, "v": 1577149879, "key": 0 }, "geometry": { "type": "Point", "coordinates": [ 7.0977968, 50.7212647 ] } },
{ "type": "Feature", "properties": { "element": "node", "id": 6166308006, "highway": "stop", "traffic_signals": null, "traffic_signals:direction": null, "button_operated": null, "check_date:tactile_paving": null, "crossing": null, "source": null, "tactile_paving": null, "traffic_signals:sound": null, "traffic_signals:vibration": null, "direction": "forward", "traffic_calming": null, "description": null, "man_made": null, "ele": null, "ele:DHHN92": null, "barrier": null, "note": null, "bicycle": null, "stop": null, "red_turn:right:bicycle": null, "red_turn:right": null, "old_name": null, "u": 1577149879, "v": 1564177273, "key": 0 }, "geometry": { "type": "Point", "coordinates": [ 7.0977968, 50.7212647 ] } },
{ "type": "Feature", "properties": { "element": "node", "id": 6254078087, "highway": "stop", "traffic_signals": null, "traffic_signals:direction": null, "button_operated": null, "check_date:tactile_paving": null, "crossing": null, "source": null, "tactile_paving": null, "traffic_signals:sound": null, "traffic_signals:vibration": null, "direction": "forward", "traffic_calming": null, "description": null, "man_made": null, "ele": null, "ele:DHHN92": null, "barrier": null, "note": null, "bicycle": null, "stop": null, "red_turn:right:bicycle": null, "red_turn:right": null, "old_name": null, "u": 32519616, "v": 30812919, "key": 0 }, "geometry": { "type": "Point", "coordinates": [ 7.0992544, 50.7250875 ] } },
{ "type": "Feature", "properties": { "element": "node", "id": 6254078087, "highway": "stop", "traffic_signals": null, "traffic_signals:direction": null, "button_operated": null, "check_date:tactile_paving": null, "crossing": null, "source": null, "tactile_paving": null, "traffic_signals:sound": null, "traffic_signals:vibration": null, "direction": "forward", "traffic_calming": null, "description": null, "man_made": null, "ele": null, "ele:DHHN92": null, "barrier": null, "note": null, "bicycle": null, "stop": null, "red_turn:right:bicycle": null, "red_turn:right": null, "old_name": null, "u": 30812919, "v": 32519616, "key": 0 }, "geometry": { "type": "Point", "coordinates": [ 7.0992544, 50.7250875 ] } },
{ "type": "Feature", "properties": { "element": "node", "id": 6808199151, "highway": "stop", "traffic_signals": null, "traffic_signals:direction": null, "button_operated": null, "check_date:tactile_paving": null, "crossing": null, "source": null, "tactile_paving": null, "traffic_signals:sound": null, "traffic_signals:vibration": null, "direction": "forward", "traffic_calming": null, "description": null, "man_made": null, "ele": null, "ele:DHHN92": null, "barrier": null, "note": null, "bicycle": null, "stop": null, "red_turn:right:bicycle": null, "red_turn:right": null, "old_name": null, "u": 347263953, "v": 30951651, "key": 0 }, "geometry": { "type": "Point", "coordinates": [ 7.0708803, 50.7141149 ] } },
{ "type": "Feature", "properties": { "element": "node", "id": 9604296235, "highway": "stop", "traffic_signals": null, "traffic_signals:direction": null, "button_operated": null, "check_date:tactile_paving": null, "crossing": null, "source": null, "tactile_paving": null, "traffic_signals:sound": null, "traffic_signals:vibration": null, "direction": "forward", "traffic_calming": null, "description": null, "man_made": null, "ele": null, "ele:DHHN92": null, "barrier": null, "note": null, "bicycle": null, "stop": null, "red_turn:right:bicycle": null, "red_turn:right": null, "old_name": null, "u": 253070274, "v": 50077631, "key": 0 }, "geometry": { "type": "Point", "coordinates": [ 7.1157042, 50.7392197 ] } },
{ "type": "Feature", "properties": { "element": "node", "id": 9604296235, "highway": "stop", "traffic_signals": null, "traffic_signals:direction": null, "button_operated": null, "check_date:tactile_paving": null, "crossing": null, "source": null, "tactile_paving": null, "traffic_signals:sound": null, "traffic_signals:vibration": null, "direction": "forward", "traffic_calming": null, "description": null, "man_made": null, "ele": null, "ele:DHHN92": null, "barrier": null, "note": null, "bicycle": null, "stop": null, "red_turn:right:bicycle": null, "red_turn:right": null, "old_name": null, "u": 50077631, "v": 253070274, "key": 0 }, "geometry": { "type": "Point", "coordinates": [ 7.1157042, 50.7392197 ] } },
{ "type": "Feature", "properties": { "element": "node", "id": 11717260946, "highway": "stop", "traffic_signals": null, "traffic_signals:direction": null, "button_operated": null, "check_date:tactile_paving": null, "crossing": null, "source": null, "tactile_paving": null, "traffic_signals:sound": null, "traffic_signals:vibration": null, "direction": "backward", "traffic_calming": null, "description": null, "man_made": null, "ele": null, "ele:DHHN92": null, "barrier": null, "note": null, "bicycle": null, "stop": null, "red_turn:right:bicycle": null, "red_turn:right": null, "old_name": null, "u": 96704094, "v": 33078435, "key": 0 }, "geometry": { "type": "Point", "coordinates": [ 7.1435081, 50.7455773 ] } },
{ "type": "Feature", "properties": { "element": "node", "id": 11717260946, "highway": "stop", "traffic_signals": null, "traffic_signals:direction": null, "button_operated": null, "check_date:tactile_paving": null, "crossing": null, "source": null, "tactile_paving": null, "traffic_signals:sound": null, "traffic_signals:vibration": null, "direction": "backward", "traffic_calming": null, "description": null, "man_made": null, "ele": null, "ele:DHHN92": null, "barrier": null, "note": null, "bicycle": null, "stop": null, "red_turn:right:bicycle": null, "red_turn:right": null, "old_name": null, "u": 33078435, "v": 96704094, "key": 0 }, "geometry": { "type": "Point", "coordinates": [ 7.1435081, 50.7455773 ] } },
{ "type": "Feature", "properties": { "element": "node", "id": 11904111901, "highway": "stop", "traffic_signals": null, "traffic_signals:direction": null, "button_operated": null, "check_date:tactile_paving": null, "crossing": null, "source": null, "tactile_paving": null, "traffic_signals:sound": null, "traffic_signals:vibration": null, "direction": "forward", "traffic_calming": null, "description": null, "man_made": null, "ele": null, "ele:DHHN92": null, "barrier": null, "note": null, "bicycle": null, "stop": null, "red_turn:right:bicycle": null, "red_turn:right": null, "old_name": null, "u": 50077636, "v": 26508677, "key": 0 }, "geometry": { "type": "Point", "coordinates": [ 7.1184033, 50.7399271 ] } },
{ "type": "Feature", "properties": { "element": "node", "id": 11904111901, "highway": "stop", "traffic_signals": null, "traffic_signals:direction": null, "button_operated": null, "check_date:tactile_paving": null, "crossing": null, "source": null, "tactile_paving": null, "traffic_signals:sound": null, "traffic_signals:vibration": null, "direction": "forward", "traffic_calming": null, "description": null, "man_made": null, "ele": null, "ele:DHHN92": null, "barrier": null, "note": null, "bicycle": null, "stop": null, "red_turn:right:bicycle": null, "red_turn:right": null, "old_name": null, "u": 26508677, "v": 50077636, "key": 0 }, "geometry": { "type": "Point", "coordinates": [ 7.1184033, 50.7399271 ] } },
{ "type": "Feature", "properties": { "element": "node", "id": 11910548320, "highway": "stop", "traffic_signals": null, "traffic_signals:direction": null, "button_operated": null, "check_date:tactile_paving": null, "crossing": null, "source": null, "tactile_paving": null, "traffic_signals:sound": null, "traffic_signals:vibration": null, "direction": "backward", "traffic_calming": null, "description": null, "man_made": null, "ele": null, "ele:DHHN92": null, "barrier": null, "note": null, "bicycle": null, "stop": null, "red_turn:right:bicycle": null, "red_turn:right": null, "old_name": null, "u": 83733995, "v": 1599017289, "key": 0 }, "geometry": { "type": "Point", "coordinates": [ 7.096233, 50.7033665 ] } },
{ "type": "Feature", "properties": { "element": "node", "id": 11910548320, "highway": "stop", "traffic_signals": null, "traffic_signals:direction": null, "button_operated": null, "check_date:tactile_paving": null, "crossing": null, "source": null, "tactile_paving": null, "traffic_signals:sound": null, "traffic_signals:vibration": null, "direction": "backward", "traffic_calming": null, "description": null, "man_made": null, "ele": null, "ele:DHHN92": null, "barrier": null, "note": null, "bicycle": null, "stop": null, "red_turn:right:bicycle": null, "red_turn:right": null, "old_name": null, "u": 1599017289, "v": 83733995, "key": 0 }, "geometry": { "type": "Point", "coordinates": [ 7.096233, 50.7033665 ] } },
{ "type": "Feature", "properties": { "element": "node", "id": 12658043743, "highway": "stop", "traffic_signals": null, "traffic_signals:direction": null, "button_operated": null, "check_date:tactile_paving": null, "crossing": null, "source": null, "tactile_paving": null, "traffic_signals:sound": null, "traffic_signals:vibration": null, "direction": "forward", "traffic_calming": null, "description": null, "man_made": null, "ele": null, "ele:DHHN92": null, "barrier": null, "note": null, "bicycle": null, "stop": null, "red_turn:right:bicycle": null, "red_turn:right": null, "old_name": null, "u": 31369809, "v": 31369808, "key": 0 }, "geometry": { "type": "Point", "coordinates": [ 7.1066918, 50.7262557 ] } },
{ "type": "Feature", "properties": { "element": "node", "id": 12658043743, "highway": "stop", "traffic_signals": null, "traffic_signals:direction": null, "button_operated": null, "check_date:tactile_paving": null, "crossing": null, "source": null, "tactile_paving": null, "traffic_signals:sound": null, "traffic_signals:vibration": null, "direction": "forward", "traffic_calming": null, "description": null, "man_made": null, "ele": null, "ele:DHHN92": null, "barrier": null, "note": null, "bicycle": null, "stop": null, "red_turn:right:bicycle": null, "red_turn:right": null, "old_name": null, "u": 31369808, "v": 31369809, "key": 0 }, "geometry": { "type": "Point", "coordinates": [ 7.1066918, 50.7262557 ] } },
{ "type": "Feature", "properties": { "element": "node", "id": 12658053704, "highway": "stop", "traffic_signals": null, "traffic_signals:direction": null, "button_operated": null, "check_date:tactile_paving": null, "crossing": null, "source": null, "tactile_paving": null, "traffic_signals:sound": null, "traffic_signals:vibration": null, "direction": "backward", "traffic_calming": null, "description": null, "man_made": null, "ele": null, "ele:DHHN92": null, "barrier": null, "note": null, "bicycle": null, "stop": null, "red_turn:right:bicycle": null, "red_turn:right": null, "old_name": null, "u": 31369789, "v": 31369791, "key": 0 }, "geometry": { "type": "Point", "coordinates": [ 7.1092414, 50.7237025 ] } },
{ "type": "Feature", "properties": { "element": "node", "id": 12658053704, "highway": "stop", "traffic_signals": null, "traffic_signals:direction": null, "button_operated": null, "check_date:tactile_paving": null, "crossing": null, "source": null, "tactile_paving": null, "traffic_signals:sound": null, "traffic_signals:vibration": null, "direction": "backward", "traffic_calming": null, "description": null, "man_made": null, "ele": null, "ele:DHHN92": null, "barrier": null, "note": null, "bicycle": null, "stop": null, "red_turn:right:bicycle": null, "red_turn:right": null, "old_name": null, "u": 31369791, "v": 31369789, "key": 0 }, "geometry": { "type": "Point", "coordinates": [ 7.1092414, 50.7237025 ] } },
{ "type": "Feature", "properties": { "element": "node", "id": 12658065202, "highway": "stop", "traffic_signals": null, "traffic_signals:direction": null, "button_operated": null, "check_date:tactile_paving": null, "crossing": null, "source": null, "tactile_paving": null, "traffic_signals:sound": null, "traffic_signals:vibration": null, "direction": "forward", "traffic_calming": null, "description": null, "man_made": null, "ele": null, "ele:DHHN92": null, "barrier": null, "note": null, "bicycle": null, "stop": null, "red_turn:right:bicycle": null, "red_turn:right": null, "old_name": null, "u": 31369783, "v": 31369779, "key": 0 }, "geometry": { "type": "Point", "coordinates": [ 7.1124857, 50.7204756 ] } },
{ "type": "Feature", "properties": { "element": "node", "id": 12658065202, "highway": "stop", "traffic_signals": null, "traffic_signals:direction": null, "button_operated": null, "check_date:tactile_paving": null, "crossing": null, "source": null, "tactile_paving": null, "traffic_signals:sound": null, "traffic_signals:vibration": null, "direction": "forward", "traffic_calming": null, "description": null, "man_made": null, "ele": null, "ele:DHHN92": null, "barrier": null, "note": null, "bicycle": null, "stop": null, "red_turn:right:bicycle": null, "red_turn:right": null, "old_name": null, "u": 31369779, "v": 31369783, "key": 0 }, "geometry": { "type": "Point", "coordinates": [ 7.1124857, 50.7204756 ] } },
{ "type": "Feature", "properties": { "element": "node", "id": 12658065203, "highway": "stop", "traffic_signals": null, "traffic_signals:direction": null, "button_operated": null, "check_date:tactile_paving": null, "crossing": null, "source": null, "tactile_paving": null, "traffic_signals:sound": null, "traffic_signals:vibration": null, "direction": "forward", "traffic_calming": null, "description": null, "man_made": null, "ele": null, "ele:DHHN92": null, "barrier": null, "note": null, "bicycle": null, "stop": null, "red_turn:right:bicycle": null, "red_turn:right": null, "old_name": null, "u": 31369786, "v": 330021594, "key": 0 }, "geometry": { "type": "Point", "coordinates": [ 7.1104853, 50.7224583 ] } },
{ "type": "Feature", "properties": { "element": "node", "id": 12658065203, "highway": "stop", "traffic_signals": null, "traffic_signals:direction": null, "button_operated": null, "check_date:tactile_paving": null, "crossing": null, "source": null, "tactile_paving": null, "traffic_signals:sound": null, "traffic_signals:vibration": null, "direction": "forward", "traffic_calming": null, "description": null, "man_made": null, "ele": null, "ele:DHHN92": null, "barrier": null, "note": null, "bicycle": null, "stop": null, "red_turn:right:bicycle": null, "red_turn:right": null, "old_name": null, "u": 330021594, "v": 31369786, "key": 0 }, "geometry": { "type": "Point", "coordinates": [ 7.1104853, 50.7224583 ] } },
{ "type": "Feature", "properties": { "element": "node", "id": 12658087907, "highway": "stop", "traffic_signals": null, "traffic_signals:direction": null, "button_operated": null, "check_date:tactile_paving": null, "crossing": null, "source": null, "tactile_paving": null, "traffic_signals:sound": null, "traffic_signals:vibration": null, "direction": "backward", "traffic_calming": null, "description": null, "man_made": null, "ele": null, "ele:DHHN92": null, "barrier": null, "note": null, "bicycle": null, "stop": null, "red_turn:right:bicycle": null, "red_turn:right": null, "old_name": null, "u": 26646150, "v": 5489633889, "key": 0 }, "geometry": { "type": "Point", "coordinates": [ 7.0747897, 50.7395291 ] } },
{ "type": "Feature", "properties": { "element": "node", "id": 12658087907, "highway": "stop", "traffic_signals": null, "traffic_signals:direction": null, "button_operated": null, "check_date:tactile_paving": null, "crossing": null, "source": null, "tactile_paving": null, "traffic_signals:sound": null, "traffic_signals:vibration": null, "direction": "backward", "traffic_calming": null, "description": null, "man_made": null, "ele": null, "ele:DHHN92": null, "barrier": null, "note": null, "bicycle": null, "stop": null, "red_turn:right:bicycle": null, "red_turn:right": null, "old_name": null, "u": 5489633889, "v": 26646150, "key": 0 }, "geometry": { "type": "Point", "coordinates": [ 7.0747897, 50.7395291 ] } },
{ "type": "Feature", "properties": { "element": "node", "id": 12659969475, "highway": "stop", "traffic_signals": null, "traffic_signals:direction": null, "button_operated": null, "check_date:tactile_paving": null, "crossing": null, "source": null, "tactile_paving": null, "traffic_signals:sound": null, "traffic_signals:vibration": null, "direction": "forward", "traffic_calming": null, "description": null, "man_made": null, "ele": null, "ele:DHHN92": null, "barrier": null, "note": null, "bicycle": null, "stop": null, "red_turn:right:bicycle": null, "red_turn:right": null, "old_name": null, "u": 86121665, "v": 86121670, "key": 0 }, "geometry": { "type": "Point", "coordinates": [ 7.0960835, 50.7301689 ] } }
]
}
